STARLINK-4076           
1 52667U 22053M   26068.52562876  .00000514  00000+0  50402-4 0  9995
2 52667  53.2178 154.8591 0001480  98.2292 261.8868 15.08834598211028
DISKSAT C               
1 67219U 25305A   26068.80315184  .00011541  00000+0  75564-3 0  9993
2 67219  45.0017 250.1278 0004534 310.7706  49.2776 15.07852977 12312
